STARLINK-37000          
1 68063U 26041Z   26090.24199201  .00252563  00000+0  15969-2 0  9995
2 68063  53.1583 314.3946 0000420  54.7370 305.3690 15.75326501  4625
STARLINK-36996          
1 68064U 26041AA  26090.09240455  .00182877  00000+0  11678-2 0  9990
2 68064  53.1584 314.8740 0000908 106.7800 253.3320 15.75312118  4600
STARLINK-36836          
1 68065U 26041AB  26090.00002315 -.00057434  00000+0 -37300-3 0  9996
2 68065  53.1579 315.3316 0001109  93.9796 103.8035 15.75241335  5802
STARLINK-36976          
1 68066U 26041AC  26090.06072914  .00426828  00000+0  26244-2 0  9994
2 68066  53.1565 315.4003 0001174 284.2660  75.8230 15.75465766  4595
STARLINK-36929          
1 68067U 26041AD  26090.06494499  .00286617  00000+0  18048-2 0  9994
2 68067  53.1572 315.4285 0002046 189.3685 170.7298 15.75321329  4592
STARLINK-36990          
1 68068U 26041AE  26090.19809655  .00360694  00000+0  17439-2 0  9994
2 68068  53.1573 314.1019 0000467  39.8947 320.2110 15.81018019  4625
STARLINK-36766          
1 68069U 26042A   26090.25002315  .00119808  00000+0  77693-3 0  9999
2 68069  53.1588  86.7890 0001105  78.7990 226.4105 15.75173199  5504
STARLINK-36823          
1 68070U 26042B   26090.25331675  .00400269  00000+0  19381-2 0  9998
2 68070  53.1567  86.6994 0001439 125.4640 234.6518 15.80882877  5492
STARLINK-36970          
1 68071U 26042C   26090.27364102  .00296019  00000+0  18628-2 0  9991
2 68071  53.1582  86.8335 0001680 116.4507 243.6686 15.75307869  5494
STARLINK-36972          
1 68072U 26042D   26090.25263387 -.00546663  00000+0 -30340-2 0  9993
2 68072  53.1574  86.6957 0000948 123.4354 236.6759 15.80230643  5492
STARLINK-37074          
1 68073U 26042E   26090.25002315  .00206150  00000+0  13196-2 0  9998
2 68073  53.1575  86.8414 0000961  96.2053 183.2764 15.75184881  5514
STARLINK-37045          
1 68074U 26042F   26090.28726322  .00182668  00000+0  11689-2 0  9995
2 68074  53.1584  86.9249 0001514  52.3548 307.7610 15.75265750  5494
STARLINK-37026          
1 68075U 26042G   26090.23321645  .00291023  00000+0  18376-2 0  9996
2 68075  53.1565  87.3014 0001452  42.7840 317.3293 15.75245249  5482
STARLINK-37023          
1 68076U 26042H   26090.29147268  .00162645  00000+0  10437-2 0  9997
2 68076  53.1567  86.9514 0001281  84.7544 275.3622 15.75264630  5497
STARLINK-37036          
1 68077U 26042J   26090.29180422  .00208662  00000+0  13308-2 0  9997
2 68077  53.1564  86.9525 0001937  48.2772 311.8413 15.75260092  5495
STARLINK-36973          
1 68078U 26042K   26090.26456340  .00177218  00000+0  11334-2 0  9999
2 68078  53.1591  86.7725 0001224  89.1860 270.9301 15.75296130  5490
