[{"OBJECT_NAME":"STARLINK-37000","OBJECT_ID":"2026-041Z","EPOCH":"2026-03-31T05:48:28.109664","MEAN_MOTION":15.75326501,"ECCENTRICITY":4.209e-5,"INCLINATION":53.1583,"RA_OF_ASC_NODE":314.3946,"ARG_OF_PERICENTER":54.737,"MEAN_ANOMALY":305.369,"EPHEMERIS_TYPE":0,"CLASSIFICATION_TYPE":"U","NORAD_CAT_ID":68063,"ELEMENT_SET_NO":999,"REV_AT_EPOCH":462,"BSTAR":0.001596878,"MEAN_MOTION_DOT":0.00252563,"MEAN_MOTION_DDOT":0},{"OBJECT_NAME":"STARLINK-36996","OBJECT_ID":"2026-041AA","EPOCH":"2026-03-31T02:13:03.753120","MEAN_MOTION":15.75312118,"ECCENTRICITY":9.087e-5,"INCLINATION":53.1584,"RA_OF_ASC_NODE":314.874,"ARG_OF_PERICENTER":106.78,"MEAN_ANOMALY":253.332,"EPHEMERIS_TYPE":0,"CLASSIFICATION_TYPE":"U","NORAD_CAT_ID":68064,"ELEMENT_SET_NO":999,"REV_AT_EPOCH":460,"BSTAR":0.0011678155,"MEAN_MOTION_DOT":0.00182877,"MEAN_MOTION_DDOT":0},{"OBJECT_NAME":"STARLINK-36836","OBJECT_ID":"2026-041AB","EPOCH":"2026-03-31T00:00:02.000160","MEAN_MOTION":15.75241335,"ECCENTRICITY":0.00011091,"INCLINATION":53.1579,"RA_OF_ASC_NODE":315.3316,"ARG_OF_PERICENTER":93.9796,"MEAN_ANOMALY":103.8035,"EPHEMERIS_TYPE":0,"CLASSIFICATION_TYPE":"U","NORAD_CAT_ID":68065,"ELEMENT_SET_NO":999,"REV_AT_EPOCH":580,"BSTAR":-0.00037299805,"MEAN_MOTION_DOT":-0.00057434,"MEAN_MOTION_DDOT":0},{"OBJECT_NAME":"STARLINK-36976","OBJECT_ID":"2026-041AC","EPOCH":"2026-03-31T01:27:26.997696","MEAN_MOTION":15.75465766,"ECCENTRICITY":0.00011746,"INCLINATION":53.1565,"RA_OF_ASC_NODE":315.4003,"ARG_OF_PERICENTER":284.266,"MEAN_ANOMALY":75.823,"EPHEMERIS_TYPE":0,"CLASSIFICATION_TYPE":"U","NORAD_CAT_ID":68066,"ELEMENT_SET_NO":999,"REV_AT_EPOCH":459,"BSTAR":0.0026243596,"MEAN_MOTION_DOT":0.00426828,"MEAN_MOTION_DDOT":0},{"OBJECT_NAME":"STARLINK-36929","OBJECT_ID":"2026-041AD","EPOCH":"2026-03-31T01:33:31.247136","MEAN_MOTION":15.75321329,"ECCENTRICITY":0.00020461,"INCLINATION":53.1572,"RA_OF_ASC_NODE":315.4285,"ARG_OF_PERICENTER":189.3685,"MEAN_ANOMALY":170.7298,"EPHEMERIS_TYPE":0,"CLASSIFICATION_TYPE":"U","NORAD_CAT_ID":68067,"ELEMENT_SET_NO":999,"REV_AT_EPOCH":459,"BSTAR":0.0018047597,"MEAN_MOTION_DOT":0.00286617,"MEAN_MOTION_DDOT":0},{"OBJECT_NAME":"STARLINK-36990","OBJECT_ID":"2026-041AE","EPOCH":"2026-03-31T04:45:15.541920","MEAN_MOTION":15.81018019,"ECCENTRICITY":4.674e-5,"INCLINATION":53.1573,"RA_OF_ASC_NODE":314.1019,"ARG_OF_PERICENTER":39.8947,"MEAN_ANOMALY":320.211,"EPHEMERIS_TYPE":0,"CLASSIFICATION_TYPE":"U","NORAD_CAT_ID":68068,"ELEMENT_SET_NO":999,"REV_AT_EPOCH":462,"BSTAR":0.0017439396,"MEAN_MOTION_DOT":0.00360694,"MEAN_MOTION_DDOT":0},{"OBJECT_NAME":"STARLINK-36766","OBJECT_ID":"2026-042A","EPOCH":"2026-03-31T06:00:02.000160","MEAN_MOTION":15.75173199,"ECCENTRICITY":0.00011056,"INCLINATION":53.1588,"RA_OF_ASC_NODE":86.789,"ARG_OF_PERICENTER":78.799,"MEAN_ANOMALY":226.4105,"EPHEMERIS_TYPE":0,"CLASSIFICATION_TYPE":"U","NORAD_CAT_ID":68069,"ELEMENT_SET_NO":999,"REV_AT_EPOCH":550,"BSTAR":0.00077692692,"MEAN_MOTION_DOT":0.00119808,"MEAN_MOTION_DDOT":0},{"OBJECT_NAME":"STARLINK-36823","OBJECT_ID":"2026-042B","EPOCH":"2026-03-31T06:04:46.567200","MEAN_MOTION":15.80882877,"ECCENTRICITY":0.00014397,"INCLINATION":53.1567,"RA_OF_ASC_NODE":86.6994,"ARG_OF_PERICENTER":125.464,"MEAN_ANOMALY":234.6518,"EPHEMERIS_TYPE":0,"CLASSIFICATION_TYPE":"U","NORAD_CAT_ID":68070,"ELEMENT_SET_NO":999,"REV_AT_EPOCH":549,"BSTAR":0.0019380758,"MEAN_MOTION_DOT":0.00400269,"MEAN_MOTION_DDOT":0},{"OBJECT_NAME":"STARLINK-36970","OBJECT_ID":"2026-042C","EPOCH":"2026-03-31T06:34:02.584128","MEAN_MOTION":15.75307869,"ECCENTRICITY":0.00016802,"INCLINATION":53.1582,"RA_OF_ASC_NODE":86.8335,"ARG_OF_PERICENTER":116.4507,"MEAN_ANOMALY":243.6686,"EPHEMERIS_TYPE":0,"CLASSIFICATION_TYPE":"U","NORAD_CAT_ID":68071,"ELEMENT_SET_NO":999,"REV_AT_EPOCH":549,"BSTAR":0.0018628422,"MEAN_MOTION_DOT":0.00296019,"MEAN_MOTION_DDOT":0},{"OBJECT_NAME":"STARLINK-36972","OBJECT_ID":"2026-042D","EPOCH":"2026-03-31T06:03:47.566368","MEAN_MOTION":15.80230643,"ECCENTRICITY":9.489e-5,"INCLINATION":53.1574,"RA_OF_ASC_NODE":86.6957,"ARG_OF_PERICENTER":123.4354,"MEAN_ANOMALY":236.6759,"EPHEMERIS_TYPE":0,"CLASSIFICATION_TYPE":"U","NORAD_CAT_ID":68072,"ELEMENT_SET_NO":999,"REV_AT_EPOCH":549,"BSTAR":-0.0030339844,"MEAN_MOTION_DOT":-0.00546663,"MEAN_MOTION_DDOT":0},{"OBJECT_NAME":"STARLINK-37074","OBJECT_ID":"2026-042E","EPOCH":"2026-03-31T06:00:02.000160","MEAN_MOTION":15.75184881,"ECCENTRICITY":9.617e-5,"INCLINATION":53.1575,"RA_OF_ASC_NODE":86.8414,"ARG_OF_PERICENTER":96.2053,"MEAN_ANOMALY":183.2764,"EPHEMERIS_TYPE":0,"CLASSIFICATION_TYPE":"U","NORAD_CAT_ID":68073,"ELEMENT_SET_NO":999,"REV_AT_EPOCH":551,"BSTAR":0.001319556,"MEAN_MOTION_DOT":0.0020615,"MEAN_MOTION_DDOT":0},{"OBJECT_NAME":"STARLINK-37045","OBJECT_ID":"2026-042F","EPOCH":"2026-03-31T06:53:39.542208","MEAN_MOTION":15.7526575,"ECCENTRICITY":0.00015146,"INCLINATION":53.1584,"RA_OF_ASC_NODE":86.9249,"ARG_OF_PERICENTER":52.3548,"MEAN_ANOMALY":307.761,"EPHEMERIS_TYPE":0,"CLASSIFICATION_TYPE":"U","NORAD_CAT_ID":68074,"ELEMENT_SET_NO":999,"REV_AT_EPOCH":549,"BSTAR":0.001168865,"MEAN_MOTION_DOT":0.00182668,"MEAN_MOTION_DDOT":0},{"OBJECT_NAME":"STARLINK-37026","OBJECT_ID":"2026-042G","EPOCH":"2026-03-31T05:35:49.901280","MEAN_MOTION":15.75245249,"ECCENTRICITY":0.00014525,"INCLINATION":53.1565,"RA_OF_ASC_NODE":87.3014,"ARG_OF_PERICENTER":42.784,"MEAN_ANOMALY":317.3293,"EPHEMERIS_TYPE":0,"CLASSIFICATION_TYPE":"U","NORAD_CAT_ID":68075,"ELEMENT_SET_NO":999,"REV_AT_EPOCH":548,"BSTAR":0.0018375567,"MEAN_MOTION_DOT":0.00291023,"MEAN_MOTION_DDOT":0},{"OBJECT_NAME":"STARLINK-37023","OBJECT_ID":"2026-042H","EPOCH":"2026-03-31T06:59:43.239552","MEAN_MOTION":15.7526463,"ECCENTRICITY":0.00012818,"INCLINATION":53.1567,"RA_OF_ASC_NODE":86.9514,"ARG_OF_PERICENTER":84.7544,"MEAN_ANOMALY":275.3622,"EPHEMERIS_TYPE":0,"CLASSIFICATION_TYPE":"U","NORAD_CAT_ID":68076,"ELEMENT_SET_NO":999,"REV_AT_EPOCH":549,"BSTAR":0.0010437279,"MEAN_MOTION_DOT":0.00162645,"MEAN_MOTION_DDOT":0},{"OBJECT_NAME":"STARLINK-37036","OBJECT_ID":"2026-042J","EPOCH":"2026-03-31T07:00:11.884608","MEAN_MOTION":15.75260092,"ECCENTRICITY":0.00019378,"INCLINATION":53.1564,"RA_OF_ASC_NODE":86.9525,"ARG_OF_PERICENTER":48.2772,"MEAN_ANOMALY":311.8413,"EPHEMERIS_TYPE":0,"CLASSIFICATION_TYPE":"U","NORAD_CAT_ID":68077,"ELEMENT_SET_NO":999,"REV_AT_EPOCH":549,"BSTAR":0.0013308032,"MEAN_MOTION_DOT":0.00208662,"MEAN_MOTION_DDOT":0},{"OBJECT_NAME":"STARLINK-36973","OBJECT_ID":"2026-042K","EPOCH":"2026-03-31T06:20:58.277760","MEAN_MOTION":15.7529613,"ECCENTRICITY":0.00012244,"INCLINATION":53.1591,"RA_OF_ASC_NODE":86.7725,"ARG_OF_PERICENTER":89.186,"MEAN_ANOMALY":270.9301,"EPHEMERIS_TYPE":0,"CLASSIFICATION_TYPE":"U","NORAD_CAT_ID":68078,"ELEMENT_SET_NO":999,"REV_AT_EPOCH":549,"BSTAR":0.0011333565,"MEAN_MOTION_DOT":0.00177218,"MEAN_MOTION_DDOT":0}]
